<?xml version="1.0" encoding="UTF-8"?>
<ndm xmlns:xsi="http://www.w3.org/2001/XMLSchema-instance" xsi:noNamespaceSchemaLocation="https://sanaregistry.org/r/ndmxml_unqualified/ndmxml-2.0.0-master-2.0.xsd">
<omm id="CCSDS_OMM_VERS" version="2.0">
<header><CREATION_DATE/><ORIGINATOR/></header><body><segment><metadata><OBJECT_NAME>GLOBALSTAR M075</OBJECT_NAME><OBJECT_ID>2010-054E</OBJECT_ID><CENTER_NAME>EARTH</CENTER_NAME><REF_FRAME>TEME</REF_FRAME><TIME_SYSTEM>UTC</TIME_SYSTEM><MEAN_ELEMENT_THEORY>SGP4</MEAN_ELEMENT_THEORY></metadata><data><meanElements><EPOCH>2024-09-21T12:24:22.180032</EPOCH><MEAN_MOTION>12.62264922</MEAN_MOTION><ECCENTRICITY>.0000386</ECCENTRICITY><INCLINATION>51.9932</INCLINATION><RA_OF_ASC_NODE>279.5825</RA_OF_ASC_NODE><ARG_OF_PERICENTER>77.8832</ARG_OF_PERICENTER><MEAN_ANOMALY>93.9000</MEAN_ANOMALY></meanElements><tleParameters><EPHEMERIS_TYPE>0</EPHEMERIS_TYPE><CLASSIFICATION_TYPE>U</CLASSIFICATION_TYPE><NORAD_CAT_ID>37192</NORAD_CAT_ID><ELEMENT_SET_NO>999</ELEMENT_SET_NO><REV_AT_EPOCH>64207</REV_AT_EPOCH><BSTAR>.547E-4</BSTAR><MEAN_MOTION_DOT>-.94E-6</MEAN_MOTION_DOT><MEAN_MOTION_DDOT>0</MEAN_MOTION_DDOT></tleParameters></data></segment></body></omm>
<omm id="CCSDS_OMM_VERS" version="2.0">
<header><CREATION_DATE/><ORIGINATOR/></header><body><segment><metadata><OBJECT_NAME>GLOBALSTAR M073</OBJECT_NAME><OBJECT_ID>2010-054F</OBJECT_ID><CENTER_NAME>EARTH</CENTER_NAME><REF_FRAME>TEME</REF_FRAME><TIME_SYSTEM>UTC</TIME_SYSTEM><MEAN_ELEMENT_THEORY>SGP4</MEAN_ELEMENT_THEORY></metadata><data><meanElements><EPOCH>2024-09-21T12:24:13.311072</EPOCH><MEAN_MOTION>12.62269741</MEAN_MOTION><ECCENTRICITY>.0000673</ECCENTRICITY><INCLINATION>52.0048</INCLINATION><RA_OF_ASC_NODE>193.1940</RA_OF_ASC_NODE><ARG_OF_PERICENTER>74.8276</ARG_OF_PERICENTER><MEAN_ANOMALY>96.4360</MEAN_ANOMALY></meanElements><tleParameters><EPHEMERIS_TYPE>0</EPHEMERIS_TYPE><CLASSIFICATION_TYPE>U</CLASSIFICATION_TYPE><NORAD_CAT_ID>37193</NORAD_CAT_ID><ELEMENT_SET_NO>999</ELEMENT_SET_NO><REV_AT_EPOCH>64390</REV_AT_EPOCH><BSTAR>.14402E-3</BSTAR><MEAN_MOTION_DOT>-.78E-6</MEAN_MOTION_DOT><MEAN_MOTION_DDOT>0</MEAN_MOTION_DDOT></tleParameters></data></segment></body></omm>
<omm id="CCSDS_OMM_VERS" version="2.0">
<header><CREATION_DATE/><ORIGINATOR/></header><body><segment><metadata><OBJECT_NAME>GLOBALSTAR M083</OBJECT_NAME><OBJECT_ID>2011-033A</OBJECT_ID><CENTER_NAME>EARTH</CENTER_NAME><REF_FRAME>TEME</REF_FRAME><TIME_SYSTEM>UTC</TIME_SYSTEM><MEAN_ELEMENT_THEORY>SGP4</MEAN_ELEMENT_THEORY></metadata><data><meanElements><EPOCH>2024-09-21T08:54:57.004704</EPOCH><MEAN_MOTION>12.62264914</MEAN_MOTION><ECCENTRICITY>.0000875</ECCENTRICITY><INCLINATION>51.9846</INCLINATION><RA_OF_ASC_NODE>142.7349</RA_OF_ASC_NODE><ARG_OF_PERICENTER>62.3730</ARG_OF_PERICENTER><MEAN_ANOMALY>109.0394</MEAN_ANOMALY></meanElements><tleParameters><EPHEMERIS_TYPE>0</EPHEMERIS_TYPE><CLASSIFICATION_TYPE>U</CLASSIFICATION_TYPE><NORAD_CAT_ID>37739</NORAD_CAT_ID><ELEMENT_SET_NO>999</ELEMENT_SET_NO><REV_AT_EPOCH>61290</REV_AT_EPOCH><BSTAR>.2214E-3</BSTAR><MEAN_MOTION_DOT>-.64E-6</MEAN_MOTION_DOT><MEAN_MOTION_DDOT>0</MEAN_MOTION_DDOT></tleParameters></data></segment></body></omm>
<omm id="CCSDS_OMM_VERS" version="2.0">
<header><CREATION_DATE/><ORIGINATOR/></header><body><segment><metadata><OBJECT_NAME>GLOBALSTAR M088</OBJECT_NAME><OBJECT_ID>2011-033B</OBJECT_ID><CENTER_NAME>EARTH</CENTER_NAME><REF_FRAME>TEME</REF_FRAME><TIME_SYSTEM>UTC</TIME_SYSTEM><MEAN_ELEMENT_THEORY>SGP4</MEAN_ELEMENT_THEORY></metadata><data><meanElements><EPOCH>2024-09-21T11:23:50.769024</EPOCH><MEAN_MOTION>12.62267703</MEAN_MOTION><ECCENTRICITY>.0000847</ECCENTRICITY><INCLINATION>51.9742</INCLINATION><RA_OF_ASC_NODE>48.1330</RA_OF_ASC_NODE><ARG_OF_PERICENTER>84.8573</ARG_OF_PERICENTER><MEAN_ANOMALY>317.6483</MEAN_ANOMALY></meanElements><tleParameters><EPHEMERIS_TYPE>0</EPHEMERIS_TYPE><CLASSIFICATION_TYPE>U</CLASSIFICATION_TYPE><NORAD_CAT_ID>37740</NORAD_CAT_ID><ELEMENT_SET_NO>999</ELEMENT_SET_NO><REV_AT_EPOCH>60846</REV_AT_EPOCH><BSTAR>-.42522E-4</BSTAR><MEAN_MOTION_DOT>-.111E-5</MEAN_MOTION_DOT><MEAN_MOTION_DDOT>0</MEAN_MOTION_DDOT></tleParameters></data></segment></body></omm>
<omm id="CCSDS_OMM_VERS" version="2.0">
<header><CREATION_DATE/><ORIGINATOR/></header><body><segment><metadata><OBJECT_NAME>GLOBALSTAR M091</OBJECT_NAME><OBJECT_ID>2011-033C</OBJECT_ID><CENTER_NAME>EARTH</CENTER_NAME><REF_FRAME>TEME</REF_FRAME><TIME_SYSTEM>UTC</TIME_SYSTEM><MEAN_ELEMENT_THEORY>SGP4</MEAN_ELEMENT_THEORY></metadata><data><meanElements><EPOCH>2024-09-21T13:28:22.753344</EPOCH><MEAN_MOTION>12.62267168</MEAN_MOTION><ECCENTRICITY>.0000684</ECCENTRICITY><INCLINATION>52.0021</INCLINATION><RA_OF_ASC_NODE>10.9488</RA_OF_ASC_NODE><ARG_OF_PERICENTER>77.3702</ARG_OF_PERICENTER><MEAN_ANOMALY>296.2936</MEAN_ANOMALY></meanElements><tleParameters><EPHEMERIS_TYPE>0</EPHEMERIS_TYPE><CLASSIFICATION_TYPE>U</CLASSIFICATION_TYPE><NORAD_CAT_ID>37741</NORAD_CAT_ID><ELEMENT_SET_NO>999</ELEMENT_SET_NO><REV_AT_EPOCH>60926</REV_AT_EPOCH><BSTAR>.93972E-4</BSTAR><MEAN_MOTION_DOT>-.87E-6</MEAN_MOTION_DOT><MEAN_MOTION_DDOT>0</MEAN_MOTION_DDOT></tleParameters></data></segment></body></omm>
<omm id="CCSDS_OMM_VERS" version="2.0">
<header><CREATION_DATE/><ORIGINATOR/></header><body><segment><metadata><OBJECT_NAME>GLOBALSTAR M085</OBJECT_NAME><OBJECT_ID>2011-033D</OBJECT_ID><CENTER_NAME>EARTH</CENTER_NAME><REF_FRAME>TEME</REF_FRAME><TIME_SYSTEM>UTC</TIME_SYSTEM><MEAN_ELEMENT_THEORY>SGP4</MEAN_ELEMENT_THEORY></metadata><data><meanElements><EPOCH>2024-09-21T13:56:52.827936</EPOCH><MEAN_MOTION>12.62266083</MEAN_MOTION><ECCENTRICITY>.0000473</ECCENTRICITY><INCLINATION>51.9881</INCLINATION><RA_OF_ASC_NODE>322.1663</RA_OF_ASC_NODE><ARG_OF_PERICENTER>74.7455</ARG_OF_PERICENTER><MEAN_ANOMALY>90.2099</MEAN_ANOMALY></meanElements><tleParameters><EPHEMERIS_TYPE>0</EPHEMERIS_TYPE><CLASSIFICATION_TYPE>U</CLASSIFICATION_TYPE><NORAD_CAT_ID>37742</NORAD_CAT_ID><ELEMENT_SET_NO>999</ELEMENT_SET_NO><REV_AT_EPOCH>60977</REV_AT_EPOCH><BSTAR>.16369E-3</BSTAR><MEAN_MOTION_DOT>-.74E-6</MEAN_MOTION_DOT><MEAN_MOTION_DDOT>0</MEAN_MOTION_DDOT></tleParameters></data></segment></body></omm>
<omm id="CCSDS_OMM_VERS" version="2.0">
<header><CREATION_DATE/><ORIGINATOR/></header><body><segment><metadata><OBJECT_NAME>GLOBALSTAR M081</OBJECT_NAME><OBJECT_ID>2011-033E</OBJECT_ID><CENTER_NAME>EARTH</CENTER_NAME><REF_FRAME>TEME</REF_FRAME><TIME_SYSTEM>UTC</TIME_SYSTEM><MEAN_ELEMENT_THEORY>SGP4</MEAN_ELEMENT_THEORY></metadata><data><meanElements><EPOCH>2024-09-21T14:30:49.597344</EPOCH><MEAN_MOTION>12.62269531</MEAN_MOTION><ECCENTRICITY>.0000694</ECCENTRICITY><INCLINATION>51.9974</INCLINATION><RA_OF_ASC_NODE>324.7156</RA_OF_ASC_NODE><ARG_OF_PERICENTER>84.5465</ARG_OF_PERICENTER><MEAN_ANOMALY>67.5912</MEAN_ANOMALY></meanElements><tleParameters><EPHEMERIS_TYPE>0</EPHEMERIS_TYPE><CLASSIFICATION_TYPE>U</CLASSIFICATION_TYPE><NORAD_CAT_ID>37743</NORAD_CAT_ID><ELEMENT_SET_NO>999</ELEMENT_SET_NO><REV_AT_EPOCH>60992</REV_AT_EPOCH><BSTAR>.17475E-3</BSTAR><MEAN_MOTION_DOT>-.72E-6</MEAN_MOTION_DOT><MEAN_MOTION_DDOT>0</MEAN_MOTION_DDOT></tleParameters></data></segment></body></omm>
<omm id="CCSDS_OMM_VERS" version="2.0">
<header><CREATION_DATE/><ORIGINATOR/></header><body><segment><metadata><OBJECT_NAME>GLOBALSTAR M089</OBJECT_NAME><OBJECT_ID>2011-033F</OBJECT_ID><CENTER_NAME>EARTH</CENTER_NAME><REF_FRAME>TEME</REF_FRAME><TIME_SYSTEM>UTC</TIME_SYSTEM><MEAN_ELEMENT_THEORY>SGP4</MEAN_ELEMENT_THEORY></metadata><data><meanElements><EPOCH>2024-09-21T19:23:07.467648</EPOCH><MEAN_MOTION>12.62269186</MEAN_MOTION><ECCENTRICITY>.0000601</ECCENTRICITY><INCLINATION>51.9917</INCLINATION><RA_OF_ASC_NODE>278.3779</RA_OF_ASC_NODE><ARG_OF_PERICENTER>119.7556</ARG_OF_PERICENTER><MEAN_ANOMALY>53.6092</MEAN_ANOMALY></meanElements><tleParameters><EPHEMERIS_TYPE>0</EPHEMERIS_TYPE><CLASSIFICATION_TYPE>U</CLASSIFICATION_TYPE><NORAD_CAT_ID>37744</NORAD_CAT_ID><ELEMENT_SET_NO>999</ELEMENT_SET_NO><REV_AT_EPOCH>61104</REV_AT_EPOCH><BSTAR>.15614E-3</BSTAR><MEAN_MOTION_DOT>-.76E-6</MEAN_MOTION_DOT><MEAN_MOTION_DDOT>0</MEAN_MOTION_DDOT></tleParameters></data></segment></body></omm>

</ndm>
