GLOBALSTAR M075         
1 37192U 10054E   24265.51692338 -.00000094  00000+0  54700-4 0  9991
2 37192  51.9932 279.5825 0000386  77.8832  93.9000 12.62264922642079
GLOBALSTAR M073         
1 37193U 10054F   24265.51682073 -.00000078  00000+0  14402-3 0  9993
2 37193  52.0048 193.1940 0000673  74.8276  96.4360 12.62269741643901
GLOBALSTAR M083         
1 37739U 11033A   24265.37149311 -.00000064  00000+0  22140-3 0  9997
2 37739  51.9846 142.7349 0000875  62.3730 109.0394 12.62264914612906
GLOBALSTAR M088         
1 37740U 11033B   24265.47489316 -.00000111  00000+0 -42522-4 0  9993
2 37740  51.9742  48.1330 0000847  84.8573 317.6483 12.62267703608466
GLOBALSTAR M091         
1 37741U 11033C   24265.56137446 -.00000087  00000+0  93972-4 0  9994
2 37741  52.0021  10.9488 0000684  77.3702 296.2936 12.62267168609269
GLOBALSTAR M085         
1 37742U 11033D   24265.58116699 -.00000074  00000+0  16369-3 0  9994
2 37742  51.9881 322.1663 0000473  74.7455  90.2099 12.62266083609770
GLOBALSTAR M081         
1 37743U 11033E   24265.60474071 -.00000072  00000+0  17475-3 0  9996
2 37743  51.9974 324.7156 0000694  84.5465  67.5912 12.62269531609923
GLOBALSTAR M089         
1 37744U 11033F   24265.80772532 -.00000076  00000+0  15614-3 0  9999
2 37744  51.9917 278.3779 0000601 119.7556  53.6092 12.62269186611043
